{"spkid": "50595942", "covariance": {"epoch": "2457117.5", "data": [["1.097730792502873E-13", "-9.802877485116282E-14", "-2.802931614628561E-11", "-2.771122341856045E-13", "-3.094352444960316E-11", "7.663300526871012E-12"], ["-9.802877485116282E-14", "8.754247151112944E-14", "2.501087465295809E-11", "2.475100288933002E-13", "2.761454179149433E-11", "-6.835442415455936E-12"], ["-2.802931614628561E-11", "2.501087465295809E-11", "7.48479208998052E-9", "9.942295409377821E-11", "8.181343901915483E-9", "-2.155988059552209E-9"], ["-2.771122341856045E-13", "2.475100288933002E-13", "9.942295409377821E-11", "2.625820702625371E-10", "-1.57632773059272E-10", "-7.000515241537075E-11"], ["-3.094352444960316E-11", "2.761454179149433E-11", "8.181343901915483E-9", "-1.57632773059272E-10", "9.224511320205661E-9", "-2.294710814259262E-9"], ["7.663300526871012E-12", "-6.835442415455936E-12", "-2.155988059552209E-9", "-7.000515241537075E-11", "-2.294710814259262E-9", "7.882471031046753E-10"]], "elements": [{"label": "e", "title": "eccentricity", "value": ".1859860728945492", "units": null, "name": "e", "sigma": 3.31320206522764e-07}, {"label": "q", "name": "q", "sigma": 2.95875770402258e-07, "value": ".7348292961387574", "title": "perihelion distance", "units": "au"}, {"label": "tp", "units": "TDB", "title": "time of perihelion passage", "value": "2457070.632610064518", "name": "tp", "sigma": 8.65146929138659e-05}, {"title": "longitude of the ascending node", "value": "296.7586310336773", "units": "deg", "name": "om", "sigma": 1.62043842913743e-05, "label": "node"}, {"sigma": 9.60443195624065e-05, "name": "w", "title": "argument of perihelion", "value": "24.14351700848557", "units": "deg", "label": "peri"}, {"sigma": 2.80757386920572e-05, "name": "i", "title": "inclination", "value": "4.168270928717032", "units": "deg", "label": "i"}], "labels": ["e", "q", "tp", "node", "peri", "i"]}, "elements": [{"label": "e", "sigma": "3.2076E-7", "name": "e", "value": ".1856014736287867", "title": "eccentricity", "units": null}, {"title": "semi-major axis", "value": ".9012310678685124", "units": "au", "sigma": "1.2707E-9", "name": "a", "label": "a"}, {"title": "perihelion distance", "value": ".7339612535920714", "units": "au", "name": "q", "sigma": "2.8938E-7", "label": "q"}, {"label": "i", "sigma": "2.7941E-5", "name": "i", "title": "inclination; angle with respect to x-y ecliptic plane", "value": "4.166345249740299", "units": "deg"}, {"label": "node", "sigma": "1.6367E-5", "name": "om", "value": "296.3382689429381", "title": "longitude of the ascending node", "units": "deg"}, {"title": "argument of perihelion", "value": "24.17651688836639", "units": "deg", "name": "w", "sigma": "9.215E-5", "label": "peri"}, {"label": "M", "sigma": ".00011473", "name": "ma", "title": "mean anomaly", "value": "74.22351970347698", "units": "deg"}, {"label": "tp", "units": "TDB", "value": "2461136.069470136416", "title": "time of perihelion passage", "name": "tp", "sigma": "9.9533E-5"}, {"units": "d", "title": "sidereal orbital period", "value": "312.5018975596192", "name": "per", "sigma": "6.6091E-7", "label": "period"}, {"label": "n", "value": "1.151993004878695", "title": "mean motion", "units": "deg/d", "sigma": "2.4364E-9", "name": "n"}, {"units": "au", "value": "1.068500882144953", "title": "aphelion distance", "name": "ad", "sigma": "1.5065E-9", "label": "Q"}], "epoch": "2461200.5"}